{
  "type": "FeatureCollection",
  "features": [
    {
      "type": "Feature",
      "properties": {
        "norad_id": 59626,
        "name": "LEGION 2",
        "group": "resource",
        "lat": 3.931933210343297,
        "lon": -116.45264879407637,
        "alt_km": 520.3680156691626,
        "timestamp": "2025-12-14T07:33:19.135890+00:00",
        "meta_object_name": "LEGION 2",
        "meta_object_id": "2024-081B",
        "meta_epoch": "2025-12-13T16:31:45.255072",
        "meta_mean_motion": 15.16506647,
        "meta_eccentricity": 0.00056851,
        "meta_inclination": 97.5218,
        "meta_ra_of_asc_node": 62.4062,
        "meta_arg_of_pericenter": 289.5179,
        "meta_mean_anomaly": 70.544,
        "meta_ephemeris_type": 0,
        "meta_classification_type": "U",
        "meta_norad_cat_id": 59626,
        "meta_element_set_no": 999,
        "meta_rev_at_epoch": 8942,
        "meta_bstar": 0.00034386768,
        "meta_mean_motion_dot": 6.636e-05,
        "meta_mean_motion_ddot": 0,
        "tle_line1": "1 59626U 24081B   25347.68871823  .00006636  00000+0  34387-3 0  9995",
        "tle_line2": "2 59626  97.5218  62.4062 0005685 289.5179  70.5440 15.16506647 89421"
      },
      "geometry": {
        "type": "Point",
        "coordinates": [
          -116.45264879407637,
          3.931933210343297
        ]
      }
    },
    {
      "type": "Feature",
      "properties": {
        "norad_id": 60182,
        "name": "ALOS-4 (DAICHI-4)",
        "group": "resource",
        "lat": -16.248371637667642,
        "lon": 85.4649032775518,
        "alt_km": 636.0563973753196,
        "timestamp": "2025-12-14T07:33:19.135900+00:00",
        "meta_object_name": "ALOS-4 (DAICHI-4)",
        "meta_object_id": "2024-123A",
        "meta_epoch": "2025-12-10T20:50:51.532800",
        "meta_mean_motion": 14.79478132,
        "meta_eccentricity": 0.0001419,
        "meta_inclination": 97.9225,
        "meta_ra_of_asc_node": 79.7424,
        "meta_arg_of_pericenter": 101.2045,
        "meta_mean_anomaly": 258.9326,
        "meta_ephemeris_type": 0,
        "meta_classification_type": "U",
        "meta_norad_cat_id": 60182,
        "meta_element_set_no": 999,
        "meta_rev_at_epoch": 7803,
        "meta_bstar": 0.00039567,
        "meta_mean_motion_dot": 2.905e-05,
        "meta_mean_motion_ddot": 0,
        "tle_line1": "1 60182U 24123A   25344.86865200  .00002905  00000+0  39567-3 0  9990",
        "tle_line2": "2 60182  97.9225  79.7424 0001419 101.2045 258.9326 14.79478132 78033"
      },
      "geometry": {
        "type": "Point",
        "coordinates": [
          85.4649032775518,
          -16.248371637667642
        ]
      }
    },
    {
      "type": "Feature",
      "properties": {
        "norad_id": 60452,
        "name": "LEGION 3",
        "group": "resource",
        "lat": -35.24132967838455,
        "lon": 166.67471863652938,
        "alt_km": 512.6684552836496,
        "timestamp": "2025-12-14T07:33:19.135911+00:00",
        "meta_object_name": "LEGION 3",
        "meta_object_id": "2024-146A",
        "meta_epoch": "2025-12-13T14:42:27.939168",
        "meta_mean_motion": 15.15773904,
        "meta_eccentricity": 0.00149803,
        "meta_inclination": 45.0016,
        "meta_ra_of_asc_node": 305.4522,
        "meta_arg_of_pericenter": 203.418,
        "meta_mean_anomaly": 156.6017,
        "meta_ephemeris_type": 0,
        "meta_classification_type": "U",
        "meta_norad_cat_id": 60452,
        "meta_element_set_no": 999,
        "meta_rev_at_epoch": 7386,
        "meta_bstar": 0.00035495471,
        "meta_mean_motion_dot": 6.647e-05,
        "meta_mean_motion_ddot": 0,
        "tle_line1": "1 60452U 24146A   25347.61282337  .00006647  00000+0  35495-3 0  9998",
        "tle_line2": "2 60452  45.0016 305.4522 0014980 203.4180 156.6017 15.15773904 73868"
      },
      "geometry": {
        "type": "Point",
        "coordinates": [
          166.67471863652938,
          -35.24132967838455
        ]
      }
    },
    {
      "type": "Feature",
      "properties": {
        "norad_id": 60453,
        "name": "LEGION 4",
        "group": "resource",
        "lat": -33.70292070911978,
        "lon": -104.75758844558862,
        "alt_km": 521.3482764657647,
        "timestamp": "2025-12-14T07:33:19.135922+00:00",
        "meta_object_name": "LEGION 4",
        "meta_object_id": "2024-146B",
        "meta_epoch": "2025-12-13T13:08:21.585984",
        "meta_mean_motion": 15.15836533,
        "meta_eccentricity": 0.00094101,
        "meta_inclination": 45.0394,
        "meta_ra_of_asc_node": 37.5554,
        "meta_arg_of_pericenter": 315.2837,
        "meta_mean_anomaly": 44.7282,
        "meta_ephemeris_type": 0,
        "meta_classification_type": "U",
        "meta_norad_cat_id": 60453,
        "meta_element_set_no": 999,
        "meta_rev_at_epoch": 7270,
        "meta_bstar": 0.0003573693,
        "meta_mean_motion_dot": 6.696e-05,
        "meta_mean_motion_ddot": 0,
        "tle_line1": "1 60453U 24146B   25347.54747206  .00006696  00000+0  35737-3 0  9995",
        "tle_line2": "2 60453  45.0394  37.5554 0009410 315.2837  44.7282 15.15836533 72700"
      },
      "geometry": {
        "type": "Point",
        "coordinates": [
          -104.75758844558862,
          -33.70292070911978
        ]
      }
    },
    {
      "type": "Feature",
      "properties": {
        "norad_id": 60989,
        "name": "SENTINEL-2C",
        "group": "resource",
        "lat": -11.968540677939096,
        "lon": -121.0568422367951,
        "alt_km": 793.4496741744215,
        "timestamp": "2025-12-14T07:33:19.135932+00:00",
        "meta_object_name": "SENTINEL-2C",
        "meta_object_id": "2024-157A",
        "meta_epoch": "2025-12-13T15:33:21.799872",
        "meta_mean_motion": 14.30817985,
        "meta_eccentricity": 0.00011981,
        "meta_inclination": 98.5683,
        "meta_ra_of_asc_node": 60.1177,
        "meta_arg_of_pericenter": 97.2974,
        "meta_mean_anomaly": 262.8345,
        "meta_ephemeris_type": 0,
        "meta_classification_type": "U",
        "meta_norad_cat_id": 60989,
        "meta_element_set_no": 999,
        "meta_rev_at_epoch": 6645,
        "meta_bstar": 9.484963e-05,
        "meta_mean_motion_dot": 2.05e-06,
        "meta_mean_motion_ddot": 0,
        "tle_line1": "1 60989U 24157A   25347.64816898  .00000205  00000+0  94850-4 0  9998",
        "tle_line2": "2 60989  98.5683  60.1177 0001198  97.2974 262.8345 14.30817985 66459"
      },
      "geometry": {
        "type": "Point",
        "coordinates": [
          -121.0568422367951,
          -11.968540677939096
        ]
      }
    },
    {
      "type": "Feature",
      "properties": {
        "norad_id": 61735,
        "name": "IONOSFERA-M 1",
        "group": "resource",
        "lat": 51.564081869135634,
        "lon": -153.02675509151467,
        "alt_km": 810.8290166084944,
        "timestamp": "2025-12-14T07:33:19.135943+00:00",
        "meta_object_name": "IONOSFERA-M 1",
        "meta_object_id": "2024-199A",
        "meta_epoch": "2025-12-13T16:07:08.410368",
        "meta_mean_motion": 14.22714289,
        "meta_eccentricity": 9.112e-05,
        "meta_inclination": 98.7403,
        "meta_ra_of_asc_node": 217.5127,
        "meta_arg_of_pericenter": 19.8923,
        "meta_mean_anomaly": 340.229,
        "meta_ephemeris_type": 0,
        "meta_classification_type": "U",
        "meta_norad_cat_id": 61735,
        "meta_element_set_no": 999,
        "meta_rev_at_epoch": 10132,
        "meta_bstar": 6.1681503e-05,
        "meta_mean_motion_dot": 9.4e-07,
        "meta_mean_motion_ddot": 0,
        "tle_line1": "1 61735U 24199A   25347.67162512  .00000094  00000+0  61682-4 0  9997",
        "tle_line2": "2 61735  98.7403 217.5127 0000911  19.8923 340.2290 14.22714289101320"
      },
      "geometry": {
        "type": "Point",
        "coordinates": [
          -153.02675509151467,
          51.564081869135634
        ]
      }
    },
    {
      "type": "Feature",
      "properties": {
        "norad_id": 61736,
        "name": "IONOSFERA-M 2",
        "group": "resource",
        "lat": -54.295978223555316,
        "lon": 25.702972055207116,
        "alt_km": 823.8960667930933,
        "timestamp": "2025-12-14T07:33:19.135953+00:00",
        "meta_object_name": "IONOSFERA-M 2",
        "meta_object_id": "2024-199B",
        "meta_epoch": "2025-12-13T15:15:45.425088",
        "meta_mean_motion": 14.22716445,
        "meta_eccentricity": 0.00016696,
        "meta_inclination": 98.7402,
        "meta_ra_of_asc_node": 217.3898,
        "meta_arg_of_pericenter": 109.2993,
        "meta_mean_anomaly": 250.8365,
        "meta_ephemeris_type": 0,
        "meta_classification_type": "U",
        "meta_norad_cat_id": 61736,
        "meta_element_set_no": 999,
        "meta_rev_at_epoch": 10444,
        "meta_bstar": 6.3346491e-05,
        "meta_mean_motion_dot": 9.8e-07,
        "meta_mean_motion_ddot": 0,
        "tle_line1": "1 61736U 24199B   25347.63594242  .00000098  00000+0  63346-4 0  9996",
        "tle_line2": "2 61736  98.7402 217.3898 0001669 109.2993 250.8365 14.22716445104446"
      },
      "geometry": {
        "type": "Point",
        "coordinates": [
          25.702972055207116,
          -54.295978223555316
        ]
      }
    }
  ]
}